{
   "type": "FeatureCollection",
   "features": [
  {
    "type": "Feature",
    "geometry": {
       "type": "Point",
       "coordinates":  [ 121.4449944444,25.16715 ]
    },
    "properties": {
    "name":"捷運公園",
    "city":"new_taipei_city"
    }
  },
  {
    "type": "Feature",
    "geometry": {
       "type": "Point",
       "coordinates":  [ 121.4304388889,25.1609194444 ]
    },
    "properties": {
    "name":"八里左岸公園",
    "city":"new_taipei_city"
    }
  },
  {
    "type": "Feature",
    "geometry": {
       "type": "Point",
       "coordinates":  [ 121.4469916667,25.1446416667 ]
    },
    "properties": {
    "name":"龍米河濱公園",
    "city":"new_taipei_city"
    }
  },
  {
    "type": "Feature",
    "geometry": {
       "type": "Point",
       "coordinates":  [ 121.4463777778,25.1462 ]
    },
    "properties": {
    "name":"米倉公園",
    "city":"new_taipei_city"
    }
  },
  {
    "type": "Feature",
    "geometry": {
       "type": "Point",
       "coordinates":  [ 121.4617277778,25.1233277778 ]
    },
    "properties": {
    "name":"觀山公園",
    "city":"new_taipei_city"
    }
  },
  {
    "type": "Feature",
    "geometry": {
       "type": "Point",
       "coordinates":  [ 121.4625,25.1234388889 ]
    },
    "properties": {
    "name":"關渡水岸公園",
    "city":"new_taipei_city"
    }
  },
  {
    "type": "Feature",
    "geometry": {
       "type": "Point",
       "coordinates":  [ 121.4679388889,25.1152888889 ]
    },
    "properties": {
    "name":"關渡自然公園",
    "city":"new_taipei_city"
    }
  },
  {
    "type": "Feature",
    "geometry": {
       "type": "Point",
       "coordinates":  [ 121.4761916667,25.1050444444 ]
    },
    "properties": {
    "name":"富州河濱公園",
    "city":"new_taipei_city"
    }
  },
  {
    "type": "Feature",
    "geometry": {
       "type": "Point",
       "coordinates":  [ 121.4585444444,25.1001944444 ]
    },
    "properties": {
    "name":"疏洪生態公園",
    "city":"new_taipei_city"
    }
  },
  {
    "type": "Feature",
    "geometry": {
       "type": "Point",
       "coordinates":  [ 121.4933277778,25.0965611111 ]
    },
    "properties": {
    "name":"福安河濱公園",
    "city":"new_taipei_city"
    }
  },
  {
    "type": "Feature",
    "geometry": {
       "type": "Point",
       "coordinates":  [ 121.4569138889,25.0921972222 ]
    },
    "properties": {
    "name":"疏洪蘆堤公園",
    "city":"new_taipei_city"
    }
  },
  {
    "type": "Feature",
    "geometry": {
       "type": "Point",
       "coordinates":  [ 121.4906388889,25.0936888889 ]
    },
    "properties": {
    "name":"淡水河畔公園",
    "city":"new_taipei_city"
    }
  },
  {
    "type": "Feature",
    "geometry": {
       "type": "Point",
       "coordinates":  [ 121.4511694444,25.0888972222 ]
    },
    "properties": {
    "name":"疏洪圳邊公園",
    "city":"new_taipei_city"
    }
  },
  {
    "type": "Feature",
    "geometry": {
       "type": "Point",
       "coordinates":  [ 121.4521055556,25.0774361111 ]
    },
    "properties": {
    "name":"疏洪沼澤公園",
    "city":"new_taipei_city"
    }
  },
  {
    "type": "Feature",
    "geometry": {
       "type": "Point",
       "coordinates":  [ 121.4557916667,25.0797361111 ]
    },
    "properties": {
    "name":"疏洪追風公園",
    "city":"new_taipei_city"
    }
  },
  {
    "type": "Feature",
    "geometry": {
       "type": "Point",
       "coordinates":  [ 121.4609083333,25.0695527778 ]
    },
    "properties": {
    "name":"疏洪中央公園",
    "city":"new_taipei_city"
    }
  },
  {
    "type": "Feature",
    "geometry": {
       "type": "Point",
       "coordinates":  [ 121.5327194444,25.0754722222 ]
    },
    "properties": {
    "name":"大佳河濱公園",
    "city":"new_taipei_city"
    }
  },
  {
    "type": "Feature",
    "geometry": {
       "type": "Point",
       "coordinates":  [ 121.5524722222,25.074 ]
    },
    "properties": {
    "name":"迎風河濱公園",
    "city":"new_taipei_city"
    }
  },
  {
    "type": "Feature",
    "geometry": {
       "type": "Point",
       "coordinates":  [ 121.4708027778,25.0664611111 ]
    },
    "properties": {
    "name":"疏洪親水公園",
    "city":"new_taipei_city"
    }
  },
  {
    "type": "Feature",
    "geometry": {
       "type": "Point",
       "coordinates":  [ 121.4758861111,25.0641944444 ]
    },
    "properties": {
    "name":"疏洪荷花公園",
    "city":"new_taipei_city"
    }
  },
  {
    "type": "Feature",
    "geometry": {
       "type": "Point",
       "coordinates":  [ 121.4804222222,25.0567111111 ]
    },
    "properties": {
    "name":"幸福水漾公園",
    "city":"new_taipei_city"
    }
  },
  {
    "type": "Feature",
    "geometry": {
       "type": "Point",
       "coordinates":  [ 121.4743305556,25.0434388889 ]
    },
    "properties": {
    "name":"三重環保河濱公園",
    "city":"new_taipei_city"
    }
  },
  {
    "type": "Feature",
    "geometry": {
       "type": "Point",
       "coordinates":  [ 121.4825194444,25.0492111111 ]
    },
    "properties": {
    "name":"二重疏洪運動公園",
    "city":"new_taipei_city"
    }
  },
  {
    "type": "Feature",
    "geometry": {
       "type": "Point",
       "coordinates":  [ 121.4808611111,25.0378722222 ]
    },
    "properties": {
    "name":"江子翠河口景觀河濱公園",
    "city":"new_taipei_city"
    }
  },
  {
    "type": "Feature",
    "geometry": {
       "type": "Point",
       "coordinates":  [ 121.4917166667,25.0375833333 ]
    },
    "properties": {
    "name":"龍山河濱公園",
    "city":"new_taipei_city"
    }
  },
  {
    "type": "Feature",
    "geometry": {
       "type": "Point",
       "coordinates":  [ 121.4883555556,25.0342861111 ]
    },
    "properties": {
    "name":"雁鴨公園",
    "city":"new_taipei_city"
    }
  },
  {
    "type": "Feature",
    "geometry": {
       "type": "Point",
       "coordinates":  [ 121.4872777778,25.0327416667 ]
    },
    "properties": {
    "name":"雙園河濱公園",
    "city":"new_taipei_city"
    }
  },
  {
    "type": "Feature",
    "geometry": {
       "type": "Point",
       "coordinates":  [ 121.444975,25.0256666667 ]
    },
    "properties": {
    "name":"西盛環保河濱公園",
    "city":"new_taipei_city"
    }
  },
  {
    "type": "Feature",
    "geometry": {
       "type": "Point",
       "coordinates":  [ 121.4364777778,25.0222916667 ]
    },
    "properties": {
    "name":"光復賞鳥河濱公園",
    "city":"new_taipei_city"
    }
  },
  {
    "type": "Feature",
    "geometry": {
       "type": "Point",
       "coordinates":  [ 121.4965416667,25.0137583333 ]
    },
    "properties": {
    "name":"華中河濱公園",
    "city":"new_taipei_city"
    }
  },
  {
    "type": "Feature",
    "geometry": {
       "type": "Point",
       "coordinates":  [ 121.5043833333,25.0190666667 ]
    },
    "properties": {
    "name":"馬場町紀念公園",
    "city":"new_taipei_city"
    }
  },
  {
    "type": "Feature",
    "geometry": {
       "type": "Point",
       "coordinates":  [ 121.5052972222,25.0231055556 ]
    },
    "properties": {
    "name":"青年公園",
    "city":"new_taipei_city"
    }
  },
  {
    "type": "Feature",
    "geometry": {
       "type": "Point",
       "coordinates":  [ 121.5139805556,25.0226361111 ]
    },
    "properties": {
    "name":"中正河濱公園",
    "city":"new_taipei_city"
    }
  },
  {
    "type": "Feature",
    "geometry": {
       "type": "Point",
       "coordinates":  [ 121.508225,25.0183583333 ]
    },
    "properties": {
    "name":"永和綠寶石河濱公園",
    "city":"new_taipei_city"
    }
  },
  {
    "type": "Feature",
    "geometry": {
       "type": "Point",
       "coordinates":  [ 121.5249333333,25.0146777778 ]
    },
    "properties": {
    "name":"古亭河濱公園",
    "city":"new_taipei_city"
    }
  },
  {
    "type": "Feature",
    "geometry": {
       "type": "Point",
       "coordinates":  [ 121.5303666667,25.0103166667 ]
    },
    "properties": {
    "name":"福和河濱公園",
    "city":"new_taipei_city"
    }
  },
  {
    "type": "Feature",
    "geometry": {
       "type": "Point",
       "coordinates":  [ 121.5363472222,24.9907027778 ]
    },
    "properties": {
    "name":"景美河濱公園",
    "city":"new_taipei_city"
    }
  },
  {
    "type": "Feature",
    "geometry": {
       "type": "Point",
       "coordinates":  [ 121.52365,24.9835666667 ]
    },
    "properties": {
    "name":"秀朗清溪公園",
    "city":"new_taipei_city"
    }
  },
  {
    "type": "Feature",
    "geometry": {
       "type": "Point",
       "coordinates":  [ 121.535475,24.9653055556 ]
    },
    "properties": {
    "name":"親情河濱公園",
    "city":"new_taipei_city"
    }
  },
  {
    "type": "Feature",
    "geometry": {
       "type": "Point",
       "coordinates":  [ 121.5203638889,24.9767222222 ]
    },
    "properties": {
    "name":"陽光運動公園",
    "city":"new_taipei_city"
    }
  },
  {
    "type": "Feature",
    "geometry": {
       "type": "Point",
       "coordinates":  [ 121.4407055556,25.003475 ]
    },
    "properties": {
    "name":"浮洲藝術河濱公園",
    "city":"new_taipei_city"
    }
  },
  {
    "type": "Feature",
    "geometry": {
       "type": "Point",
       "coordinates":  [ 121.4401305556,24.9914222222 ]
    },
    "properties": {
    "name":"板橋環保公園",
    "city":"new_taipei_city"
    }
  },
  {
    "type": "Feature",
    "geometry": {
       "type": "Point",
       "coordinates":  [ 121.4361638889,24.9777555556 ]
    },
    "properties": {
    "name":"溪洲運動公園",
    "city":"new_taipei_city"
    }
  },
  {
    "type": "Feature",
    "geometry": {
       "type": "Point",
       "coordinates":  [ 121.4126722222,24.9699277778 ]
    },
    "properties": {
    "name":"樹林環保河濱公園",
    "city":"new_taipei_city"
    }
  },
  {
    "type": "Feature",
    "geometry": {
       "type": "Point",
       "coordinates":  [ 121.4194666667,24.9664055556 ]
    },
    "properties": {
    "name":"土城馬祖田運動公園",
    "city":"new_taipei_city"
    }
  },
  {
    "type": "Feature",
    "geometry": {
       "type": "Point",
       "coordinates":  [ 121.412575,24.9644777778 ]
    },
    "properties": {
    "name":"土城環保公園",
    "city":"new_taipei_city"
    }
  },
  {
    "type": "Feature",
    "geometry": {
       "type": "Point",
       "coordinates":  [ 121.3886666667,24.9674472222 ]
    },
    "properties": {
    "name":"柑園河濱公園",
    "city":"new_taipei_city"
    }
  },
  {
    "type": "Feature",
    "geometry": {
       "type": "Point",
       "coordinates":  [ 121.3513694444,24.9372861111 ]
    },
    "properties": {
    "name":"三鶯陶瓷公園",
    "city":"new_taipei_city"
    }
  },
  {
    "type": "Feature",
    "geometry": {
       "type": "Point",
       "coordinates":  [ 121.3463972222,24.93595 ]
    },
    "properties": {
    "name":"南靖陶藝河濱公園",
    "city":"new_taipei_city"
    }
  },
  {
    "type": "Feature",
    "geometry": {
       "type": "Point",
       "coordinates":  [ 121.3552194444,24.9312916667 ]
    },
    "properties": {
    "name":"鳶山公園",
    "city":"new_taipei_city"
    }
  },
  {
    "type": "Feature",
    "geometry": {
       "type": "Point",
       "coordinates":  [ 121.3503583333,24.9353305556 ]
    },
    "properties": {
    "name":"三鶯運動公園",
    "city":"new_taipei_city"
    }
  },
  {
    "type": "Feature",
    "geometry": {
       "type": "Point",
       "coordinates":  [ 121.5181138889,25.0185916667 ]
    },
    "properties": {
    "name":"綠光河岸公園",
    "city":"new_taipei_city"
    }
  },
  {
    "type": "Feature",
    "geometry": {
       "type": "Point",
       "coordinates":  [ 121.442725,25.1681722222 ]
    },
    "properties": {
    "name":"金色水岸河濱公園",
    "city":"new_taipei_city"
    }
  },
  {
    "type": "Feature",
    "geometry": {
       "type": "Point",
       "coordinates":  [ 121.4853861111,25.0255555556 ]
    },
    "properties": {
    "name":"江翠礫間水岸公園",
    "city":"new_taipei_city"
    }
  },
  {
    "type": "Feature",
    "geometry": {
       "type": "Point",
       "coordinates":  [ 121.5271972222,25.00715 ]
    },
    "properties": {
    "name":"福和運動公園",
    "city":"new_taipei_city"
    }
  },
  {
    "type": "Feature",
    "geometry": {
       "type": "Point",
       "coordinates":  [ 121.6011449566 ,25.0585683067  ]
    },
    "properties": {
    "name":"南湖左岸",
    "city":"taipei"
    }
  },
  {
    "type": "Feature",
    "geometry": {
       "type": "Point",
       "coordinates":  [ 121.5965026441 ,25.0602977957  ]
    },
    "properties": {
    "name":"南湖右岸",
    "city":"taipei"
    }
  },
  {
    "type": "Feature",
    "geometry": {
       "type": "Point",
       "coordinates":  [ 121.5782064713 ,25.0520872743  ]
    },
    "properties": {
    "name":"成美左岸",
    "city":"taipei"
    }
  },
  {
    "type": "Feature",
    "geometry": {
       "type": "Point",
       "coordinates":  [ 121.5861439154 ,25.0556918934  ]
    },
    "properties": {
    "name":"成美右岸",
    "city":"taipei"
    }
  },
  {
    "type": "Feature",
    "geometry": {
       "type": "Point",
       "coordinates":  [ 121.5693587698 ,25.0618088229  ]
    },
    "properties": {
    "name":"觀山",
    "city":"taipei"
    }
  },
  {
    "type": "Feature",
    "geometry": {
       "type": "Point",
       "coordinates":  [ 121.5723444139 ,25.0601339493  ]
    },
    "properties": {
    "name":"彩虹",
    "city":"taipei"
    }
  },
  {
    "type": "Feature",
    "geometry": {
       "type": "Point",
       "coordinates":  [ 121.5563967051 ,25.0736057582  ]
    },
    "properties": {
    "name":"迎風",
    "city":"taipei"
    }
  },
  {
    "type": "Feature",
    "geometry": {
       "type": "Point",
       "coordinates":  [ 121.5616761977 ,25.0747344773  ]
    },
    "properties": {
    "name":"美堤",
    "city":"taipei"
    }
  },
  {
    "type": "Feature",
    "geometry": {
       "type": "Point",
       "coordinates":  [ 121.5355336000 ,25.0750257600  ]
    },
    "properties": {
    "name":"大佳",
    "city":"taipei"
    }
  },
  {
    "type": "Feature",
    "geometry": {
       "type": "Point",
       "coordinates":  [ 121.5333126000 ,25.0777201200  ]
    },
    "properties": {
    "name":"圓山",
    "city":"taipei"
    }
  },
  {
    "type": "Feature",
    "geometry": {
       "type": "Point",
       "coordinates":  [ 121.5131049000 ,25.0854026900  ]
    },
    "properties": {
    "name":"百齡左岸",
    "city":"taipei"
    }
  },
  {
    "type": "Feature",
    "geometry": {
       "type": "Point",
       "coordinates":  [ 121.5154351000 ,25.0849657700  ]
    },
    "properties": {
    "name":"百齡右岸",
    "city":"taipei"
    }
  },
  {
    "type": "Feature",
    "geometry": {
       "type": "Point",
       "coordinates":  [ 121.5724718500 ,24.9909179802  ]
    },
    "properties": {
    "name":"道南",
    "city":"taipei"
    }
  },
  {
    "type": "Feature",
    "geometry": {
       "type": "Point",
       "coordinates":  [ 121.5448000264 ,24.9850923332  ]
    },
    "properties": {
    "name":"木柵",
    "city":"taipei"
    }
  },
  {
    "type": "Feature",
    "geometry": {
       "type": "Point",
       "coordinates":  [ 121.5364984794 ,24.9910818265  ]
    },
    "properties": {
    "name":"景美",
    "city":"taipei"
    }
  },
  {
    "type": "Feature",
    "geometry": {
       "type": "Point",
       "coordinates":  [ 121.5340954000 ,25.0051908155  ]
    },
    "properties": {
    "name":"溪洲",
    "city":"taipei"
    }
  },
  {
    "type": "Feature",
    "geometry": {
       "type": "Point",
       "coordinates":  [ 121.5248107750 ,25.0154221082  ]
    },
    "properties": {
    "name":"古亭",
    "city":"taipei"
    }
  },
  {
    "type": "Feature",
    "geometry": {
       "type": "Point",
       "coordinates":  [ 121.5141425588 ,25.0228862184  ]
    },
    "properties": {
    "name":"中正",
    "city":"taipei"
    }
  },
  {
    "type": "Feature",
    "geometry": {
       "type": "Point",
       "coordinates":  [ 121.5033287014 ,25.0182985214  ]
    },
    "properties": {
    "name":"馬場町紀念公園",
    "city":"taipei"
    }
  },
  {
    "type": "Feature",
    "geometry": {
       "type": "Point",
       "coordinates":  [ 121.4933158705 ,25.0142569787  ]
    },
    "properties": {
    "name":"華中",
    "city":"taipei"
    }
  },
  {
    "type": "Feature",
    "geometry": {
       "type": "Point",
       "coordinates":  [ 121.4871625308 ,25.0332267420  ]
    },
    "properties": {
    "name":"雙園",
    "city":"taipei"
    }
  },
  {
    "type": "Feature",
    "geometry": {
       "type": "Point",
       "coordinates":  [ 121.5056225500 ,25.0504852214  ]
    },
    "properties": {
    "name":"龍山",
    "city":"taipei"
    }
  },
  {
    "type": "Feature",
    "geometry": {
       "type": "Point",
       "coordinates":  [ 121.4627676338 ,25.1174437523  ]
    },
    "properties": {
    "name":"關渡水岸公園",
    "city":"taipei"
    }
  },
  {
    "type": "Feature",
    "geometry": {
       "type": "Point",
       "coordinates":  [ 121.5041297279 ,25.0862037199  ]
    },
    "properties": {
    "name":"延平河濱",
    "city":"taipei"
    }
  },
  {
    "type": "Feature",
    "geometry": {
       "type": "Point",
       "coordinates":  [ 121.4903666367 ,25.0985832199  ]
    },
    "properties": {
    "name":"福安",
    "city":"taipei"
    }
  },
  {
    "type": "Feature",
    "geometry": {
       "type": "Point",
       "coordinates":  [ 121.4770404691 ,25.1047001493  ]
    },
    "properties": {
    "name":"富州",
    "city":"taipei"
    }
  },
  {
    "type": "Feature",
    "geometry": {
       "type": "Point",
       "coordinates":  [ 121.5275779573 ,25.1005129655  ]
    },
    "properties": {
    "name":"雙溪",
    "city":"taipei"
    }
  },
  {
    "type": "Feature",
    "geometry": {
       "type": "Point",
       "coordinates":  [ 121.5145066617 ,25.0992750155  ]
    },
    "properties": {
    "name":"河雙21號",
    "city":"taipei"
    }
  },
  {
    "type": "Feature",
    "geometry": {
       "type": "Point",
       "coordinates":  [ 121.4952200000 ,25.0387100000  ]
    },
    "properties": {
    "name":"華江雁鴨自然公園",
    "city":"taipei"
    }
  },
  {
    "type": "Feature",
    "geometry": {
       "type": "Point",
       "coordinates":  [ 121.4660760000 ,25.1098320000  ]
    },
    "properties": {
    "name":"社子島環島(待命名)",
    "city":"taipei"
    }
  }
]
}