{
  "type": "FeatureCollection",
  "features": [
    {
      "type": "Feature",
      "geometry": {
        "type": "Point",
        "coordinates": [
          121.534353313509,
          25.0430237413942
        ]
      },
      "properties": {
        "id": 1,
        "Name": "臺北科技大學第三教學大樓B1體適能運動中心(舞蹈教室)",
        "Addr": "臺北市大安區忠孝東路三段1號",
        "City": "臺北市",
        "District": "大安區",
        "OperationTel": "02-27712171#3320",
        "Introduction": "舞蹈教室設有教師休息室、器材室與律墊等器材,可容納40位學生進行運動。",
        "photo": "https://iplay.sa.gov.tw/Upload/photogym/20140617224725_dancingroom.jpg"
      }
    },
    {
      "type": "Feature",
      "geometry": {
        "type": "Point",
        "coordinates": [
          121.610584259033,
          25.0572224282712
        ]
      },
      "properties": {
        "id": 2,
        "Name": "南港國民小學活動中心",
        "Addr": "臺北市南港區三重里惠民街67號",
        "City": "臺北市",
        "District": "南港區",
        "OperationTel": "02-27834678",
        "Introduction": "本館位於南港國民小學活動中心四樓，於民國99年8月完工，內附綜合球場。",
        "photo": "https://iplay.sa.gov.tw/Upload/photogym/20160719122128_55L38YJ05R36CGQ8H02Y.jpg"
      }
    },
    {
      "type": "Feature",
      "geometry": {
        "type": "Point",
        "coordinates": [
          121.546772360671,
          24.9988098269339
        ]
      },
      "properties": {
        "id": 3,
        "Name": "靜心小學運動中心",
        "Addr": "臺北市文山區興福里興隆路2段46號",
        "City": "臺北市",
        "District": "文山區",
        "OperationTel": "02-29323118#165",
        "Introduction": "本館興建於民國99年9月，位於靜心中小學校園內，內有一籃球場、羽球場(籃球場與羽球場共用一個空間)、韻律教室",
        "photo": "https://iplay.sa.gov.tw/Upload/photogym/20140702172907_運動中心1.JPG"
      }
    },
    {
      "type": "Feature",
      "geometry": {
        "type": "Point",
        "coordinates": [
          121.610691547394,
          25.0669314189394
        ]
      },
      "properties": {
        "id": 4,
        "Name": "南湖高中運動中心",
        "Addr": "臺北市內湖區康寧路三段220號",
        "City": "臺北市",
        "District": "內湖區",
        "OperationTel": "02-26308889",
        "Introduction": "本場館興建於民國93年，當時專門為臺北市立南湖高中師生使用，後於民國96年依臺北市政府相關規定委外營運(頂尖運動行銷公司)。場館一樓設有溫水游泳池、SPA池、烤箱及蒸氣室；內部另設有健身中心(芳鄰健身中心)；二樓為綜合體育館，可供籃球、排球、羽球等或其他大型活動使用。",
        "photo": "https://iplay.sa.gov.tw/Upload/photogym/20140621142951_10458524_10204354110359585_1277845401404937502_n.jpg"
      }
    },
    {
      "type": "Feature",
      "geometry": {
        "type": "Point",
        "coordinates": [
          121.542477607727,
          25.0790932979346
        ]
      },
      "properties": {
        "id": 5,
        "Name": "北安國中多功能場地",
        "Addr": "臺北市中山區明水路325號",
        "City": "臺北市",
        "District": "中山區",
        "OperationTel": "02-25325733",
        "Introduction": "本校綜合大樓興建於99年8月，內含室內溫水游泳池、室內綜合球場暨地下停車場，為達成全方位多元化、活潑化、彈性化之學習發展願景，依促參法及相關法令之規定委託民間參與之經營管理，藉由民間機構靈活的經營理念和行銷策略，提供學校和社區使用者一個專業、創新的綜合育樂中心，成為學生和市民運動、休閒、學習的重要場所，並增進學生和市民學習效果，提升設施使用效率，落實全民化運動和學習網絡之一環，除達成培養市民終生運動的目標外，更能促使社區生涯學習、促進交流活動和社區融合之休閒活動中心，提高生活水準，希冀藉由委由民間經營達成推廣休閒運動、加強人才培訓、促進學習交流之目的，促成本校游泳池暨室內綜合球場永續經營使用的目標。\n本契約所稱之「營運管理標的物」為本校【室內溫水游泳池、室內綜合球場暨地下停車場】內部相關設備：\n（一）1樓游泳池：大廳控制室1間、辦公室2間（體育組辦公室除外）、訓練室1間、25m×14m游泳池一座、男、女廁所、盥洗室、更衣室及無障礙廁所\n                              等游泳池營運空間。\n（二）2樓：綜合球場一座、舞臺（含舞臺燈光及音響設施、音響控制室、後臺、貴賓室及學員休息室2間）及男、女廁所。\n（三）3樓機房、維修走道。\n（四）電梯：電梯2座。\n（五）地下室：停車場、游泳池池水加熱系統、淋浴加熱系統及熱水鍋爐、過濾系統、加藥系統等游泳池維持設備機房。",
        "photo": "https://iplay.sa.gov.tw/Upload/photogym/20140728161220_P1070485.JPG"
      }
    },
    {
      "type": "Feature",
      "geometry": {
        "type": "Point",
        "coordinates": [
          121.587570905685,
          25.0448445365716
        ]
      },
      "properties": {
        "id": 6,
        "Name": "成德國中活動中心",
        "Addr": "臺北市南港區東新街108巷23號",
        "City": "臺北市",
        "District": "南港區",
        "OperationTel": "02-27825000",
        "Introduction": "本場館於民國99年4月啟用，附有地下室停車場、一樓游泳池、二樓韻律教室及健身房、三樓綜合球場，平日上學期間供學生使用，課後及假日則委外經營。",
        "photo": "https://iplay.sa.gov.tw/Upload/photogym/20140731142748_DSC05806.JPG"
      }
    },
    {
      "type": "Feature",
      "geometry": {
        "type": "Point",
        "coordinates": [
          121.534400310366,
          25.042897040411
        ]
      },
      "properties": {
        "id": 7,
        "Name": "臺北科技大學體適能運動中心(有氧訓練室)",
        "Addr": "臺北市大安區忠孝東路三段1號",
        "City": "臺北市",
        "District": "大安區",
        "OperationTel": "02-27712171#3320",
        "Introduction": "有氧訓練室設置13台跑步機、交叉訓練機6台、飛輪9台,並設有一組高級音響及2台電視機。",
        "photo": "https://iplay.sa.gov.tw/Upload/photogym/20140617165240_AerobicsRoom_2.jpg"
      }
    },
    {
      "type": "Feature",
      "geometry": {
        "type": "Point",
        "coordinates": [
          121.533229351044,
          25.0122730990559
        ]
      },
      "properties": {
        "id": 8,
        "Name": "自來水園區親水體驗教育區",
        "Addr": "臺北市 中正區 思源街1號",
        "City": "臺北市",
        "District": " 中正",
        "OperationTel": "02-83695003",
        "Introduction": "2樓:(1)溫水泳池全長25米(7水道，水深1.2至1.5米)、兒童池(水深60至75公分)、SPA水療池、蒸氣室、烤箱、冷熱水池；(2)健身房 4樓:有氧教室\n\n目前該整建中，整建至2026年。",
        "photo": "https://iplay.sa.gov.tw/Upload/photogym/20170614163251_05754F13TVZ3KOSBSE2Z.jpg"
      }
    },
    {
      "type": "Feature",
      "geometry": {
        "type": "Point",
        "coordinates": [
          121.575200557709,
          25.0782916131744
        ]
      },
      "properties": {
        "id": 9,
        "Name": "臺北市內湖運動中心",
        "Addr": "臺北市 內湖區 洲子街12號",
        "City": "臺北市",
        "District": " 內湖",
        "OperationTel": "02-26562869",
        "Introduction": "本場(館)興建於民國97年，位於台北市內湖區洲子街12號內，提供民眾球類.體適能.游泳與各類教室研習課程,周邊另有兒童遊戲設施、戶外體健設施等休閒設施。",
        "photo": "https://iplay.sa.gov.tw/Upload/photogym/20140718171821_1406884770741.jpg"
      }
    },
    {
      "type": "Feature",
      "geometry": {
        "type": "Point",
        "coordinates": [
          121.559686660767,
          24.9970087957549
        ]
      },
      "properties": {
        "id": 10,
        "Name": "臺北市文山運動中心",
        "Addr": "臺北市 文山區 興隆路三段222號",
        "City": "臺北市",
        "District": " 文山",
        "OperationTel": "02-22308268",
        "Introduction": "文山運動中心，為臺灣臺北市第12座運動中心。樓地板面積12,500平方公尺，地下二層、地上8層。2010年8月21日試營運，2010年8月29日正式啟用，目前承包經營單位是中國青年救國團。主要服務客群為大文山地區之市民。",
        "photo": "https://iplay.sa.gov.tw/Upload/photogym/20140620123524_167903574_m.jpg"
      }
    },
    {
      "type": "Feature",
      "geometry": {
        "type": "Point",
        "coordinates": [
          121.509695649147,
          25.1168977019917
        ]
      },
      "properties": {
        "id": 11,
        "Name": "臺北市北投運動中心",
        "Addr": "臺北市 北投區 石牌路1段39巷100號",
        "City": "臺北市",
        "District": " 北投",
        "OperationTel": "02-28202880",
        "Introduction": "本運動中心處在空氣清新、 環境優美的石牌公園內， 提供專業運動顧問群、嶄新的游泳池、 各類球場、完善的健身運動設施、 另精心設計多種課程、專屬停車場。\n\n1.設有YouBike北投運動中心站。2.周邊有汽機車停車格供民眾使用。3.籃球場管有電子計分板。4.攀岩場之攀岩塔1座，寬3公尺；攀岩壁面3面，寬5.5公尺。",
        "photo": "https://iplay.sa.gov.tw/Upload/photogym/20140618145326_Q255H.jpg"
      }
    },
    {
      "type": "Feature",
      "geometry": {
        "type": "Point",
        "coordinates": [
          121.550191640854,
          25.0485769888833
        ]
      },
      "properties": {
        "id": 12,
        "Name": "臺北市松山運動中心",
        "Addr": "臺北市 松山區 敦化北路1號",
        "City": "臺北市",
        "District": " 松山",
        "OperationTel": "02-66176789",
        "Introduction": "松山運動中心於2009年11月1日開幕，是臺北市第九座啟用的市民運動中心，提供居民俱樂部般的設備及優質的運動環境。中心擁有挑高的鯨魚造型環保綠建築場館及多功能休閒運動設施，並規劃有體適能健身中心、舞蹈教室，還有兩座游泳池及十公尺跳水台，一座基本的二十五公尺游泳池可供民眾休閒使用，另一座五十公尺游泳池是台北市唯一可以作跳水、水球、水中芭蕾訓練使用的游泳池，亦提供多項室內水上課程，如：獨木舟、滑水、潛水等。並提供運動選手培訓及舉辦國內外運動賽事。",
        "photo": "https://iplay.sa.gov.tw/Upload/photogym/20140618181246_松山運動中心全景圖.gif"
      }
    },
    {
      "type": "Feature",
      "geometry": {
        "type": "Point",
        "coordinates": [
          121.566553115845,
          25.0318481065974
        ]
      },
      "properties": {
        "id": 13,
        "Name": "臺北市信義運動中心",
        "Addr": "臺北市 信義區 松勤街100號",
        "City": "臺北市",
        "District": " 信義",
        "OperationTel": "02-87861911",
        "Introduction": "信義運動中心位於101信義商圈、世貿大樓以及臺北市政府、信義區行政中心一帶，以商業娛樂、公務行政較為發達，周邊尚有國父紀念館、信義分局、臺北醫學大學附設醫院、鄰近學校等，且因捷運信義線，更加提升中心交通便利性與市民服務。\n       臺北市信義運動中心自98年5月28日啟用至今，以「樂活、運動、新生活」為經營主軸，大力改善美化場館環境及設施（如中心射箭場、壁球室、體適能中心、飛輪教室），不斷提昇中心品質，辦理各項活動，鼓勵並積極擴展各種不同運動喜好的市民參與休閒、體驗運動的機會，以「處處能運動」、「人人愛運動」、「時時可運動」為目標，進而成為最優質的運動場館。",
        "photo": "https://iplay.sa.gov.tw/Upload/photogym/20140617171939_U9JNY.jpg"
      }
    },
    {
      "type": "Feature",
      "geometry": {
        "type": "Point",
        "coordinates": [
          121.506750583649,
          25.0475175282915
        ]
      },
      "properties": {
        "id": 14,
        "Name": "臺北市萬華運動中心",
        "Addr": "臺北市 萬華區 西寧南路6之1號",
        "City": "臺北市",
        "District": " 萬華",
        "OperationTel": "02-23759900",
        "Introduction": "中心設備規劃在游泳池部分設有溫水游泳池、水療池、三溫暖設施，市民活動空間設有民眾閱覽室及兒童遊戲室，提供老少咸宜的休閒場所，運動項目部分設有健身中心、舞蹈教室、多功能球場、桌球練習場、攀岩場及高爾夫球練習區，高爾夫球設備引進新型模擬設備，提供市民新穎的運動設施，戶外多功能運動場可提供多元化運動項目的複合式場所，營造出一個結合環保節能及多元化運動項目的優質休閒環境。 中心規劃一系列運動課程、公益講座、研習課程、回饋活動等，提供多元化的服務，在運動場域結合駐場專業教練，提供民眾各項運動設施專業的諮詢，給予市民最直接的回饋，讓市民藉由運動休閒，進而改善體能並豐富生活，提升生活品質及促進身心靈健康。",
        "photo": "https://iplay.sa.gov.tw/Upload/photogym/20140618160453_IMAG6907.jpg"
      }
    },
    {
      "type": "Feature",
      "geometry": {
        "type": "Point",
        "coordinates": [
          121.5764772892,
          24.9894032830165
        ]
      },
      "properties": {
        "id": 15,
        "Name": "萬興國小運動中心",
        "Addr": "臺北市文山區秀明路2段114號",
        "City": "臺北市",
        "District": "文山區",
        "OperationTel": "02-29381721#124",
        "Introduction": "本場館座落於國立政治大學旁，為地下兩層地上四層的運動中心，平日學校上班上課時段為本校教學使用場地，下午四點放學後由恆動力有限公司承租經營，本校地下兩層皆為汽機車停車場，計有234個小型車停車格，190個機車格。",
        "photo": "https://iplay.sa.gov.tw/Upload/photogym/20140801152750_mobile7c67db8a-fa50-47a9-b962-81c32157e228.jpg"
      }
    },
    {
      "type": "Feature",
      "geometry": {
        "type": "Point",
        "coordinates": [
          121.466261297464,
          25.1266092440274
        ]
      },
      "properties": {
        "id": 16,
        "Name": "關渡國小運動中心",
        "Addr": "臺北市北投區中央北路4段581號",
        "City": "臺北市",
        "District": "北投區",
        "OperationTel": "02-28975205",
        "Introduction": "本場(館)興建於民國92年，位於捷運關渡站2號出口旁，地點適當，交通方便，緊鄰關渡捷運站，捷運及接駁公車便捷；另外四周沒有建築物阻礙視線，因此空氣流暢，光線良好。本校體育館周邊設有平面停車場，車位充足且機車也方便停放。室內體育館、游泳池，皆設施完備。",
        "photo": "https://iplay.sa.gov.tw/Upload/photogym/20140731121328_DSC028030000.jpg"
      }
    },
    {
      "type": "Feature",
      "geometry": {
        "type": "Point",
        "coordinates": [
          121.523015499115,
          25.0430122885876
        ]
      },
      "properties": {
        "id": 17,
        "Name": "成功高中運動中心(舞動陽光有限公司成功營業所)",
        "Addr": "臺北市中正區濟南路1段71號",
        "City": "臺北市",
        "District": "中正區",
        "OperationTel": "02-23216256#276",
        "Introduction": "本場(館)興建於民國98年，位於中正區，b1游泳池(25mx15m)、5樓活動中心、8樓綜合球場(12面羽球場及3面籃球排球場)等。",
        "photo": "https://iplay.sa.gov.tw/Upload/photogym/20140609115648_picmain.jpg"
      }
    },
    {
      "type": "Feature",
      "geometry": {
        "type": "Point",
        "coordinates": [
          121.521540284157,
          25.0893592574582
        ]
      },
      "properties": {
        "id": 18,
        "Name": "臺北市士林運動中心",
        "Addr": "臺北市 士林區 士商路1號",
        "City": "臺北市",
        "District": " 士林",
        "OperationTel": "02-28806066",
        "Introduction": "01.視覺穿透\n採開放式彈性設計，配合落地帷幕，窗外即是廣場及承德公園，達到視覺穿透效果，提升視覺空間。\n\n02.打破傳統\n將游泳池由過去在地下室的慣例搬上3樓，提供泳客享有陽光照射的溫水游泳樂趣。讓泳客可在有陽光照射的室內泳池游泳運動。\n\n03.建築採RC結構\n為了讓樓地板能確實承載泳池約350噸的水，從地下樓層至泳池所在的樓，建築採承載力大的RC結構。在3樓以上使用全鋼構。",
        "photo": "https://iplay.sa.gov.tw/Upload/photogym/20140624094002_MTJ84PKTV66H4WPZE1O7.jpg"
      }
    },
    {
      "type": "Feature",
      "geometry": {
        "type": "Point",
        "coordinates": [
          121.516347527504,
          25.0652695742122
        ]
      },
      "properties": {
        "id": 19,
        "Name": "臺北市大同運動中心",
        "Addr": "臺北市 大同區 大龍街51號",
        "City": "臺北市",
        "District": " 大同",
        "OperationTel": "02-25920055",
        "Introduction": "臺北市第十座市民運動中心－「大同運動中心」位於台北市最早開發、文化古蹟最豐富的行政區中，擁有享譽國際的孔廟、大龍峒保安宮，以及南北貨集散地的迪化街、大稻埕碼頭、圓環等，對台北的繁榮風華功不可沒，要如何在這個舊市鎮注入新的生命，大同區市民運動中心的啟用，就是一個新的里程碑。",
        "photo": "https://iplay.sa.gov.tw/Upload/photogym/20140625184629_大同外觀.JPG"
      }
    },
    {
      "type": "Feature",
      "geometry": {
        "type": "Point",
        "coordinates": [
          121.545778736472,
          25.0205334329641
        ]
      },
      "properties": {
        "id": 20,
        "Name": "臺北市大安運動中心",
        "Addr": "臺北市 大安區 辛亥路三段55號",
        "City": "臺北市",
        "District": " 大安",
        "OperationTel": "02-23770300",
        "Introduction": "大安運動中心為臺北市第11座市民運動中心。\n其中分地下二層、地上五層，總樓板面積約五千兩百多坪。\n※場館設施設備簡介：\n4F：一座戶外運動場、三座壁球場。\n3F：五種運動場地共構的設施，分別有健身中心、籃(1面)羽球(8面)共用的多功能場地及撞球場。\n2F：五間韻律教室、一間技擊教室、一間飛輪教室、社區教室、多功能教室、桌球場等。\n1F：服務台、閱覽室、兒童遊戲室、哺集乳室、身障按摩區等。\nB1F：泳池：設置有50公尺及25公尺的室內溫水游泳池、 SPA水療設備、男女烤箱、男女蒸氣室、冷熱水池等。\nB2F：汽機車停車場 。",
        "photo": "https://iplay.sa.gov.tw/Upload/photogym/20140715192917_AZP1G.jpg"
      }
    },
    {
      "type": "Feature",
      "geometry": {
        "type": "Point",
        "coordinates": [
          121.521411538124,
          25.0548266480798
        ]
      },
      "properties": {
        "id": 21,
        "Name": "臺北市中山運動中心",
        "Addr": "臺北市 中山區 中山北路2段44巷2號",
        "City": "臺北市",
        "District": " 中山",
        "OperationTel": "02-25811060",
        "Introduction": "中山運動中心是臺北市第1座啟用運動中心，中心設有游泳池、健身房、社區教室、飛輪教室、綜合球場及羽球場等，適合辦理各類舞蹈及運動活動，並提供運動休閒、大型晚會使用，寬敞明亮，挑高的空間、明亮的燈光加上舒適的空調設備， 適合熱愛運動的市民全天候的運動需求。\n\n機械式停車格沒在使用，機車一次20元，汽車一小時40元",
        "photo": "https://iplay.sa.gov.tw/Upload/photogym/20140625182321_6LV1H.jpg"
      }
    },
    {
      "type": "Feature",
      "geometry": {
        "type": "Point",
        "coordinates": [
          121.581853106618,
          25.0489505923558
        ]
      },
      "properties": {
        "id": 22,
        "Name": "臺北市南港運動中心",
        "Addr": "臺北市 南港區 玉成街69號",
        "City": "臺北市",
        "District": " 南港",
        "OperationTel": "02-26532279",
        "Introduction": "(一)場館設施：南港運動中心為地上 8 樓層、地下 4 層的運動場館，總樓板面積為17,540 平方公尺(約 6,305 坪)；包含有潛水池、游泳池、健身房、飛輪教室、各式球場、攀岩、射擊、射箭等 12 項運動設施；並有 3 間木地板教室，每期開設有氧、瑜珈類運動研習課程約 200 堂以上。\n\n(二)特色項目：本中心為全臺北市唯一設置「5 米溫水潛水訓練池」之運動中心，並有射擊場、射箭場等專業運動設施及專業教練等獨有或特色項目。\n\n(三)開館時間: 06:00~22:00 (除夕、初一不開放；如遇颱風等天災，依照行政院人事行政總處公告停止上班上課，暫時不對外開放",
        "photo": "https://iplay.sa.gov.tw/Upload/photogym/20140625222852_6W2EK.jpg"
      }
    }
  ]
}